{
  "type": "FeatureCollection",
  "features": [
    {
      "type": "Feature",
      "properties": {
        "norad_id": 66751,
        "name": "TRANSPORTER-15 CP",
        "group": "last-30-days",
        "lat": -16.987983401046385,
        "lon": -116.48244205830666,
        "alt_km": 516.2084800791217,
        "timestamp": "2025-12-20T03:42:46.120240+00:00",
        "meta_object_name": "TRANSPORTER-15 CP",
        "meta_object_id": "2025-276CP",
        "meta_epoch": "2025-12-19T20:00:01.999008",
        "meta_mean_motion": 15.17807611,
        "meta_eccentricity": 0.0002088,
        "meta_inclination": 97.4428,
        "meta_ra_of_asc_node": 65.4905,
        "meta_arg_of_pericenter": 216.0208,
        "meta_mean_anomaly": 26.2824,
        "meta_ephemeris_type": 0,
        "meta_classification_type": "U",
        "meta_norad_cat_id": 66751,
        "meta_element_set_no": 999,
        "meta_rev_at_epoch": 434,
        "meta_bstar": -0.0026663,
        "meta_mean_motion_dot": -0.00053545,
        "meta_mean_motion_ddot": 0,
        "tle_line1": "1 66751U 25276CP  25353.83335647 -.00053545  00000+0 -26663-2 0  9992",
        "tle_line2": "2 66751  97.4428  65.4905 0002088 216.0208  26.2824 15.17807611  4349"
      },
      "geometry": {
        "type": "Point",
        "coordinates": [
          -116.48244205830666,
          -16.987983401046385
        ]
      }
    },
    {
      "type": "Feature",
      "properties": {
        "norad_id": 66752,
        "name": "TRANSPORTER-15 CQ",
        "group": "last-30-days",
        "lat": -2.4329387860527705,
        "lon": -114.51721917344707,
        "alt_km": 516.1285765597304,
        "timestamp": "2025-12-20T03:42:46.120252+00:00",
        "meta_object_name": "TRANSPORTER-15 CQ",
        "meta_object_id": "2025-276CQ",
        "meta_epoch": "2025-12-19T20:00:01.999008",
        "meta_mean_motion": 15.17612278,
        "meta_eccentricity": 0.0001623,
        "meta_inclination": 97.4421,
        "meta_ra_of_asc_node": 65.4852,
        "meta_arg_of_pericenter": 250.922,
        "meta_mean_anomaly": 336.9298,
        "meta_ephemeris_type": 0,
        "meta_classification_type": "U",
        "meta_norad_cat_id": 66752,
        "meta_element_set_no": 999,
        "meta_rev_at_epoch": 440,
        "meta_bstar": -0.0024998,
        "meta_mean_motion_dot": -0.00049948,
        "meta_mean_motion_ddot": 0,
        "tle_line1": "1 66752U 25276CQ  25353.83335647 -.00049948  00000+0 -24998-2 0  9994",
        "tle_line2": "2 66752  97.4421  65.4852 0001623 250.9220 336.9298 15.17612278  4405"
      },
      "geometry": {
        "type": "Point",
        "coordinates": [
          -114.51721917344707,
          -2.4329387860527705
        ]
      }
    },
    {
      "type": "Feature",
      "properties": {
        "norad_id": 66753,
        "name": "TRANSPORTER-15 CR",
        "group": "last-30-days",
        "lat": 15.706551623921499,
        "lon": -112.10462748127614,
        "alt_km": 515.1647486226766,
        "timestamp": "2025-12-20T03:42:46.120264+00:00",
        "meta_object_name": "TRANSPORTER-15 CR",
        "meta_object_id": "2025-276CR",
        "meta_epoch": "2025-12-19T20:00:01.999008",
        "meta_mean_motion": 15.17388766,
        "meta_eccentricity": 0.0001041,
        "meta_inclination": 97.4424,
        "meta_ra_of_asc_node": 65.473,
        "meta_arg_of_pericenter": 299.0605,
        "meta_mean_anomaly": 270.7534,
        "meta_ephemeris_type": 0,
        "meta_classification_type": "U",
        "meta_norad_cat_id": 66753,
        "meta_element_set_no": 999,
        "meta_rev_at_epoch": 436,
        "meta_bstar": -0.0026809,
        "meta_mean_motion_dot": -0.00053198,
        "meta_mean_motion_ddot": 0,
        "tle_line1": "1 66753U 25276CR  25353.83335647 -.00053198  00000+0 -26809-2 0  9990",
        "tle_line2": "2 66753  97.4424  65.4730 0001041 299.0605 270.7534 15.17388766  4364"
      },
      "geometry": {
        "type": "Point",
        "coordinates": [
          -112.10462748127614,
          15.706551623921499
        ]
      }
    },
    {
      "type": "Feature",
      "properties": {
        "norad_id": 66754,
        "name": "TRANSPORTER-15 CS",
        "group": "last-30-days",
        "lat": -21.276423134864174,
        "lon": -117.1141738406472,
        "alt_km": 516.4201247187984,
        "timestamp": "2025-12-20T03:42:46.120277+00:00",
        "meta_object_name": "TRANSPORTER-15 CS",
        "meta_object_id": "2025-276CS",
        "meta_epoch": "2025-12-19T20:00:01.999008",
        "meta_mean_motion": 15.17857185,
        "meta_eccentricity": 0.0002015,
        "meta_inclination": 97.442,
        "meta_ra_of_asc_node": 65.4876,
        "meta_arg_of_pericenter": 202.0111,
        "meta_mean_anomaly": 44.5587,
        "meta_ephemeris_type": 0,
        "meta_classification_type": "U",
        "meta_norad_cat_id": 66754,
        "meta_element_set_no": 999,
        "meta_rev_at_epoch": 437,
        "meta_bstar": -0.0026218,
        "meta_mean_motion_dot": -0.00052733,
        "meta_mean_motion_ddot": 0,
        "tle_line1": "1 66754U 25276CS  25353.83335647 -.00052733  00000+0 -26218-2 0  9999",
        "tle_line2": "2 66754  97.4420  65.4876 0002015 202.0111  44.5587 15.17857185  4372"
      },
      "geometry": {
        "type": "Point",
        "coordinates": [
          -117.1141738406472,
          -21.276423134864174
        ]
      }
    },
    {
      "type": "Feature",
      "properties": {
        "norad_id": 66755,
        "name": "TRANSPORTER-15 CT",
        "group": "last-30-days",
        "lat": -0.7891613496188205,
        "lon": -114.3090526336609,
        "alt_km": 516.0891509051335,
        "timestamp": "2025-12-20T03:42:46.120287+00:00",
        "meta_object_name": "TRANSPORTER-15 CT",
        "meta_object_id": "2025-276CT",
        "meta_epoch": "2025-12-19T20:00:01.999008",
        "meta_mean_motion": 15.17628766,
        "meta_eccentricity": 7.19e-05,
        "meta_inclination": 97.4423,
        "meta_ra_of_asc_node": 65.4783,
        "meta_arg_of_pericenter": 245.9768,
        "meta_mean_anomaly": 340.19,
        "meta_ephemeris_type": 0,
        "meta_classification_type": "U",
        "meta_norad_cat_id": 66755,
        "meta_element_set_no": 999,
        "meta_rev_at_epoch": 420,
        "meta_bstar": -0.0026757,
        "meta_mean_motion_dot": -0.00053457,
        "meta_mean_motion_ddot": 0,
        "tle_line1": "1 66755U 25276CT  25353.83335647 -.00053457  00000+0 -26757-2 0  9992",
        "tle_line2": "2 66755  97.4423  65.4783 0000719 245.9768 340.1900 15.17628766  4203"
      },
      "geometry": {
        "type": "Point",
        "coordinates": [
          -114.3090526336609,
          -0.7891613496188205
        ]
      }
    },
    {
      "type": "Feature",
      "properties": {
        "norad_id": 66756,
        "name": "TRANSPORTER-15 CU",
        "group": "last-30-days",
        "lat": -26.136618873490576,
        "lon": -117.86886043322284,
        "alt_km": 517.2824125394254,
        "timestamp": "2025-12-20T03:42:46.120297+00:00",
        "meta_object_name": "TRANSPORTER-15 CU",
        "meta_object_id": "2025-276CU",
        "meta_epoch": "2025-12-19T15:43:55.275168",
        "meta_mean_motion": 15.17907006,
        "meta_eccentricity": 0.0001241,
        "meta_inclination": 97.4425,
        "meta_ra_of_asc_node": 65.318,
        "meta_arg_of_pericenter": 166.1359,
        "meta_mean_anomaly": 193.9909,
        "meta_ephemeris_type": 0,
        "meta_classification_type": "U",
        "meta_norad_cat_id": 66756,
        "meta_element_set_no": 999,
        "meta_rev_at_epoch": 317,
        "meta_bstar": 0.00017921,
        "meta_mean_motion_dot": 3.567e-05,
        "meta_mean_motion_ddot": 0,
        "tle_line1": "1 66756U 25276CU  25353.65550087  .00003567  00000+0  17921-3 0  9999",
        "tle_line2": "2 66756  97.4425  65.3180 0001241 166.1359 193.9909 15.17907006  3172"
      },
      "geometry": {
        "type": "Point",
        "coordinates": [
          -117.86886043322284,
          -26.136618873490576
        ]
      }
    },
    {
      "type": "Feature",
      "properties": {
        "norad_id": 66757,
        "name": "TRANSPORTER-15 CV",
        "group": "last-30-days",
        "lat": -32.51673707217201,
        "lon": -118.96651364649205,
        "alt_km": 517.3830187191152,
        "timestamp": "2025-12-20T03:42:46.120308+00:00",
        "meta_object_name": "TRANSPORTER-15 CV",
        "meta_object_id": "2025-276CV",
        "meta_epoch": "2025-12-19T15:42:16.442208",
        "meta_mean_motion": 15.18021664,
        "meta_eccentricity": 0.0001414,
        "meta_inclination": 97.4435,
        "meta_ra_of_asc_node": 65.3222,
        "meta_arg_of_pericenter": 163.2709,
        "meta_mean_anomaly": 196.8572,
        "meta_ephemeris_type": 0,
        "meta_classification_type": "U",
        "meta_norad_cat_id": 66757,
        "meta_element_set_no": 999,
        "meta_rev_at_epoch": 317,
        "meta_bstar": 0.00021228,
        "meta_mean_motion_dot": 4.252e-05,
        "meta_mean_motion_ddot": 0,
        "tle_line1": "1 66757U 25276CV  25353.65435697  .00004252  00000+0  21228-3 0  9996",
        "tle_line2": "2 66757  97.4435  65.3222 0001414 163.2709 196.8572 15.18021664  3176"
      },
      "geometry": {
        "type": "Point",
        "coordinates": [
          -118.96651364649205,
          -32.51673707217201
        ]
      }
    }
  ]
}